CCSDS_OMM_VERS = 2.0
CREATION_DATE  = 
ORIGINATOR     = 

OBJECT_NAME    = STARLINK-35868
OBJECT_ID      = 2025-268Y
CENTER_NAME    = EARTH
REF_FRAME      = TEME
TIME_SYSTEM    = UTC
MEAN_ELEMENT_THEORY = SGP/SGP4

EPOCH          = 2025-12-09T12:00:02.000160
MEAN_MOTION    = 15.50623477
ECCENTRICITY   = .0002057
INCLINATION    = 43.0003
RA_OF_ASC_NODE = 140.0389
ARG_OF_PERICENTER = 264.2569
MEAN_ANOMALY   = 130.5724

EPHEMERIS_TYPE = 0
CLASSIFICATION_TYPE = U
NORAD_CAT_ID   = 66579
ELEMENT_SET_NO = 999
REV_AT_EPOCH   = 414
BSTAR          = -.1823E-2
MEAN_MOTION_DOT = -.106025E-2
MEAN_MOTION_DDOT = 0

CCSDS_OMM_VERS = 2.0
CREATION_DATE  = 
ORIGINATOR     = 

OBJECT_NAME    = STARLINK-35872
OBJECT_ID      = 2025-268Z
CENTER_NAME    = EARTH
REF_FRAME      = TEME
TIME_SYSTEM    = UTC
MEAN_ELEMENT_THEORY = SGP/SGP4

EPOCH          = 2025-12-09T12:00:02.000160
MEAN_MOTION    = 15.50637947
ECCENTRICITY   = .0001968
INCLINATION    = 43.0001
RA_OF_ASC_NODE = 140.0341
ARG_OF_PERICENTER = 259.9571
MEAN_ANOMALY   = 136.7874

EPHEMERIS_TYPE = 0
CLASSIFICATION_TYPE = U
NORAD_CAT_ID   = 66580
ELEMENT_SET_NO = 999
REV_AT_EPOCH   = 414
BSTAR          = -.22248E-2
MEAN_MOTION_DOT = -.12901E-2
MEAN_MOTION_DDOT = 0

CCSDS_OMM_VERS = 2.0
CREATION_DATE  = 
ORIGINATOR     = 

OBJECT_NAME    = STARLINK-35744
OBJECT_ID      = 2025-268AA
CENTER_NAME    = EARTH
REF_FRAME      = TEME
TIME_SYSTEM    = UTC
MEAN_ELEMENT_THEORY = SGP/SGP4

EPOCH          = 2025-12-09T12:00:02.000160
MEAN_MOTION    = 15.50623955
ECCENTRICITY   = .0001986
INCLINATION    = 43.0005
RA_OF_ASC_NODE = 140.0293
ARG_OF_PERICENTER = 262.5718
MEAN_ANOMALY   = 136.0916

EPHEMERIS_TYPE = 0
CLASSIFICATION_TYPE = U
NORAD_CAT_ID   = 66581
ELEMENT_SET_NO = 999
REV_AT_EPOCH   = 409
BSTAR          = -.18606E-2
MEAN_MOTION_DOT = -.108179E-2
MEAN_MOTION_DDOT = 0

CCSDS_OMM_VERS = 2.0
CREATION_DATE  = 
ORIGINATOR     = 

OBJECT_NAME    = STARLINK-35746
OBJECT_ID      = 2025-268AB
CENTER_NAME    = EARTH
REF_FRAME      = TEME
TIME_SYSTEM    = UTC
MEAN_ELEMENT_THEORY = SGP/SGP4

EPOCH          = 2025-12-09T12:00:02.000160
MEAN_MOTION    = 15.50617169
ECCENTRICITY   = .0001943
INCLINATION    = 43.0006
RA_OF_ASC_NODE = 140.0247
ARG_OF_PERICENTER = 264.5314
MEAN_ANOMALY   = 136.0508

EPHEMERIS_TYPE = 0
CLASSIFICATION_TYPE = U
NORAD_CAT_ID   = 66582
ELEMENT_SET_NO = 999
REV_AT_EPOCH   = 414
BSTAR          = -.16616E-2
MEAN_MOTION_DOT = -.96761E-3
MEAN_MOTION_DDOT = 0

CCSDS_OMM_VERS = 2.0
CREATION_DATE  = 
ORIGINATOR     = 

OBJECT_NAME    = STARLINK-35941
OBJECT_ID      = 2025-268AC
CENTER_NAME    = EARTH
REF_FRAME      = TEME
TIME_SYSTEM    = UTC
MEAN_ELEMENT_THEORY = SGP/SGP4

EPOCH          = 2025-12-09T12:00:02.000160
MEAN_MOTION    = 15.50622872
ECCENTRICITY   = .0002066
INCLINATION    = 43.0006
RA_OF_ASC_NODE = 140.0193
ARG_OF_PERICENTER = 264.0828
MEAN_ANOMALY   = 138.4156

EPHEMERIS_TYPE = 0
CLASSIFICATION_TYPE = U
NORAD_CAT_ID   = 66583
ELEMENT_SET_NO = 999
REV_AT_EPOCH   = 414
BSTAR          = -.18286E-2
MEAN_MOTION_DOT = -.106343E-2
MEAN_MOTION_DDOT = 0

CCSDS_OMM_VERS = 2.0
CREATION_DATE  = 
ORIGINATOR     = 

OBJECT_NAME    = STARLINK-35939
OBJECT_ID      = 2025-268AD
CENTER_NAME    = EARTH
REF_FRAME      = TEME
TIME_SYSTEM    = UTC
MEAN_ELEMENT_THEORY = SGP/SGP4

EPOCH          = 2025-12-09T12:00:02.000160
MEAN_MOTION    = 15.50638201
ECCENTRICITY   = .0001991
INCLINATION    = 43.0006
RA_OF_ASC_NODE = 140.0158
ARG_OF_PERICENTER = 264.1793
MEAN_ANOMALY   = 140.2293

EPHEMERIS_TYPE = 0
CLASSIFICATION_TYPE = U
NORAD_CAT_ID   = 66584
ELEMENT_SET_NO = 999
REV_AT_EPOCH   = 414
BSTAR          = -.22381E-2
MEAN_MOTION_DOT = -.129769E-2
MEAN_MOTION_DDOT = 0

CCSDS_OMM_VERS = 2.0
CREATION_DATE  = 
ORIGINATOR     = 

OBJECT_NAME    = STARLINK-35963
OBJECT_ID      = 2025-268AE
CENTER_NAME    = EARTH
REF_FRAME      = TEME
TIME_SYSTEM    = UTC
MEAN_ELEMENT_THEORY = SGP/SGP4

EPOCH          = 2025-12-09T12:00:02.000160
MEAN_MOTION    = 15.50588989
ECCENTRICITY   = .0001606
INCLINATION    = 43.0006
RA_OF_ASC_NODE = 140.0114
ARG_OF_PERICENTER = 271.9173
MEAN_ANOMALY   = 134.4381

EPHEMERIS_TYPE = 0
CLASSIFICATION_TYPE = U
NORAD_CAT_ID   = 66585
ELEMENT_SET_NO = 999
REV_AT_EPOCH   = 414
BSTAR          = -.10986E-2
MEAN_MOTION_DOT = -.64285E-3
MEAN_MOTION_DDOT = 0

CCSDS_OMM_VERS = 2.0
CREATION_DATE  = 
ORIGINATOR     = 

OBJECT_NAME    = TJS-21
OBJECT_ID      = 2025-269A
CENTER_NAME    = EARTH
REF_FRAME      = TEME
TIME_SYSTEM    = UTC
MEAN_ELEMENT_THEORY = SGP/SGP4

EPOCH          = 2025-12-09T05:37:30.491616
MEAN_MOTION    = 2.00564420
ECCENTRICITY   = .6805592
INCLINATION    = 63.2636
RA_OF_ASC_NODE = 162.6946
ARG_OF_PERICENTER = 269.7960
MEAN_ANOMALY   = 18.6520

EPHEMERIS_TYPE = 0
CLASSIFICATION_TYPE = U
NORAD_CAT_ID   = 66586
ELEMENT_SET_NO = 999
REV_AT_EPOCH   = 36
BSTAR          = -.40942E-1
MEAN_MOTION_DOT = .1078E-4
MEAN_MOTION_DDOT = 0

CCSDS_OMM_VERS = 2.0
CREATION_DATE  = 
ORIGINATOR     = 

OBJECT_NAME    = CZ-3B R/B
OBJECT_ID      = 2025-269B
CENTER_NAME    = EARTH
REF_FRAME      = TEME
TIME_SYSTEM    = UTC
MEAN_ELEMENT_THEORY = SGP/SGP4

EPOCH          = 2025-12-08T20:16:41.020608
MEAN_MOTION    = 2.02868931
ECCENTRICITY   = .7519771
INCLINATION    = 51.3469
RA_OF_ASC_NODE = 170.5472
ARG_OF_PERICENTER = 228.0184
MEAN_ANOMALY   = 37.9662

EPHEMERIS_TYPE = 0
CLASSIFICATION_TYPE = U
NORAD_CAT_ID   = 66587
ELEMENT_SET_NO = 999
REV_AT_EPOCH   = 37
BSTAR          = .1255E-2
MEAN_MOTION_DOT = .50168E-3
MEAN_MOTION_DDOT = .42215E-6

CCSDS_OMM_VERS = 2.0
CREATION_DATE  = 
ORIGINATOR     = 

OBJECT_NAME    = STARLINK-36076
OBJECT_ID      = 2025-270A
CENTER_NAME    = EARTH
REF_FRAME      = TEME
TIME_SYSTEM    = UTC
MEAN_ELEMENT_THEORY = SGP/SGP4

EPOCH          = 2025-12-09T12:00:02.000160
MEAN_MOTION    = 15.55893132
ECCENTRICITY   = .0001739
INCLINATION    = 42.9996
RA_OF_ASC_NODE = 211.7104
ARG_OF_PERICENTER = 252.3596
MEAN_ANOMALY   = 17.4557

EPHEMERIS_TYPE = 0
CLASSIFICATION_TYPE = U
NORAD_CAT_ID   = 66588
ELEMENT_SET_NO = 999
REV_AT_EPOCH   = 388
BSTAR          = -.32081E-1
MEAN_MOTION_DOT = -.2038587E-1
MEAN_MOTION_DDOT = 0

CCSDS_OMM_VERS = 2.0
CREATION_DATE  = 
ORIGINATOR     = 

OBJECT_NAME    = STARLINK-35447
OBJECT_ID      = 2025-270B
CENTER_NAME    = EARTH
REF_FRAME      = TEME
TIME_SYSTEM    = UTC
MEAN_ELEMENT_THEORY = SGP/SGP4

EPOCH          = 2025-12-09T12:00:02.000160
MEAN_MOTION    = 15.55896293
ECCENTRICITY   = .0001597
INCLINATION    = 42.9997
RA_OF_ASC_NODE = 211.7007
ARG_OF_PERICENTER = 255.9500
MEAN_ANOMALY   = 17.6976

EPHEMERIS_TYPE = 0
CLASSIFICATION_TYPE = U
NORAD_CAT_ID   = 66589
ELEMENT_SET_NO = 999
REV_AT_EPOCH   = 398
BSTAR          = -.32129E-1
MEAN_MOTION_DOT = -.2041457E-1
MEAN_MOTION_DDOT = 0

CCSDS_OMM_VERS = 2.0
CREATION_DATE  = 
ORIGINATOR     = 

OBJECT_NAME    = STARLINK-35429
OBJECT_ID      = 2025-270C
CENTER_NAME    = EARTH
REF_FRAME      = TEME
TIME_SYSTEM    = UTC
MEAN_ELEMENT_THEORY = SGP/SGP4

EPOCH          = 2025-12-09T12:00:02.000160
MEAN_MOTION    = 15.55894364
ECCENTRICITY   = .0001542
INCLINATION    = 42.9994
RA_OF_ASC_NODE = 211.7057
ARG_OF_PERICENTER = 255.9623
MEAN_ANOMALY   = 15.7684

EPHEMERIS_TYPE = 0
CLASSIFICATION_TYPE = U
NORAD_CAT_ID   = 66590
ELEMENT_SET_NO = 999
REV_AT_EPOCH   = 398
BSTAR          = -.32048E-1
MEAN_MOTION_DOT = -.2036681E-1
MEAN_MOTION_DDOT = 0

