STARLINK-35868          
1 66579U 25268Y   25343.50002315 -.00106025  00000+0 -18230-2 0  9990
2 66579  43.0003 140.0389 0002057 264.2569 130.5724 15.50623477  4149
STARLINK-35872          
1 66580U 25268Z   25343.50002315 -.00129010  00000+0 -22248-2 0  9995
2 66580  43.0001 140.0341 0001968 259.9571 136.7874 15.50637947  4142
STARLINK-35744          
1 66581U 25268AA  25343.50002315 -.00108179  00000+0 -18606-2 0  9992
2 66581  43.0005 140.0293 0001986 262.5718 136.0916 15.50623955  4094
STARLINK-35746          
1 66582U 25268AB  25343.50002315 -.00096761  00000+0 -16616-2 0  9995
2 66582  43.0006 140.0247 0001943 264.5314 136.0508 15.50617169  4145
STARLINK-35941          
1 66583U 25268AC  25343.50002315 -.00106343  00000+0 -18286-2 0  9999
2 66583  43.0006 140.0193 0002066 264.0828 138.4156 15.50622872  4140
STARLINK-35939          
1 66584U 25268AD  25343.50002315 -.00129769  00000+0 -22381-2 0  9998
2 66584  43.0006 140.0158 0001991 264.1793 140.2293 15.50638201  4146
STARLINK-35963          
1 66585U 25268AE  25343.50002315 -.00064285  00000+0 -10986-2 0  9998
2 66585  43.0006 140.0114 0001606 271.9173 134.4381 15.50588989  4140
TJS-21                  
1 66586U 25269A   25343.23438069  .00001078  00000+0 -40942-1 0  9993
2 66586  63.2636 162.6946 6805592 269.7960  18.6520  2.00564420   361
CZ-3B R/B               
1 66587U 25269B   25342.84491922  .00050168  42215-6  12550-2 0  9996
2 66587  51.3469 170.5472 7519771 228.0184  37.9662  2.02868931   372
STARLINK-36076          
1 66588U 25270A   25343.50002315 -.02038587  00000+0 -32081-1 0  9991
2 66588  42.9996 211.7104 0001739 252.3596  17.4557 15.55893132  3882
STARLINK-35447          
1 66589U 25270B   25343.50002315 -.02041457  00000+0 -32129-1 0  9995
2 66589  42.9997 211.7007 0001597 255.9500  17.6976 15.55896293  3981
STARLINK-35429          
1 66590U 25270C   25343.50002315 -.02036681  00000+0 -32048-1 0  9990
2 66590  42.9994 211.7057 0001542 255.9623  15.7684 15.55894364  3983
